INMARSAT 3-F1           
1 23839U 96020A   26116.69956001 -.00000292  00000+0  00000+0 0  9996
2 23839  10.4965  47.1006 0004002 334.2703  43.0834  0.99995002109744
GORIZONT 32             
1 23880U 96034A   26116.45401851 -.00000174  00000+0  00000+0 0  9998
2 23880  14.3901 355.3796 0009049 357.7156 182.8411  1.00222822109515
TURKSAT 1C              
1 23949U 96040B   26116.98545670 -.00000289  00000+0  00000+0 0  9994
2 23949  11.9828  30.5751 0003122 188.2101  83.7897  1.00372789109164
UFO 7 (USA 127)         
1 23967U 96042A   26117.05734144 -.00000272  00000+0  00000+0 0  9993
2 23967  11.0685  17.3587 0004547  97.6899  85.0760  1.00230915108971
INMARSAT 3-F2           
1 24307U 96053A   26117.18345851  .00000094  00000+0  00000+0 0  9992
2 24307   9.7438  54.4479 0006669 345.8041  79.9800  0.99994542108412
ECHOSTAR 2              
1 24313U 96055A   26117.13811684 -.00000216  00000+0  00000+0 0  9995
2 24313  11.8871  31.9684 0010367  85.2473  58.7306  1.00344255108505
EXPRESS 2               
1 24435U 96058A   26117.16274839 -.00000262  00000+0  00000+0 0  9992
2 24435  14.5739 354.7458 0010655 356.7314  11.3492  1.00326089108302
SL-12 R/B(2)            
1 24438U 96058D   26116.78589709  .00000112  00000+0  00000+0 0  9990
2 24438  14.3879 351.4529 0007384 123.3189  56.7990  1.00261843108328
AFRICASAT-2 (MEASAT-2)  
1 24653U 96063B   26117.05656144 -.00000292  00000+0  00000+0 0  9994
2 24653  12.1829  29.3748 0004065 207.9904 318.2574  0.99658808107779
INMARSAT 3-F3           
1 24674U 96070A   26116.79846969 -.00000242  00000+0  00000+0 0  9996
2 24674  10.2094  50.1354 0004711 323.5018 225.8544  0.99978140107391
DFH 3-2                 
1 24798U 97021A   26116.59019117 -.00000377  00000+0  00000+0 0  9994
2 24798  13.4634  14.1900 0006003  89.8187  88.3813  1.00251322106002
AMC-3                   
1 24936U 97050A   26116.83625653 -.00000268  00000+0  00000+0 0  9994
2 24936   8.0228  64.6637 0003090 321.0795  58.1392  1.00271411 51929
USA 134                 
1 25019U 97065A   26116.59026112 -.00000072  00000+0  00000+0 0  9994
2 25019  12.7250  22.1107 0006081 324.7858 327.8660  1.00276282 32433
KUPON                   
1 25045U 97070A   26117.13167294 -.00000278  00000+0  00000+0 0  9995
2 25045  14.5559 355.0238 0005074 313.9375  45.9764  1.00271054104134
INDOSTAR 1              
1 25050U 97071B   26116.94988491  .00000121  00000+0  00000+0 0  9996
2 25050  12.8985  20.4221 0003856 317.4412 251.2244  1.00293638104289
GALAXY 8 (G-8)          
1 25086U 97078A   26116.96572659 -.00000256  00000+0  00000+0 0  9999
2 25086  14.0169  10.2787 0008172  36.7403 134.3471  0.99706607103438
INTELSAT 804 (IS-804)   
1 25110U 97083A   26116.52683757 -.00000089  00000+0  00000+0 0  9991
2 25110  13.1006  18.0153 0009932  20.3604 171.7729  1.00264545103812
