[{"OBJECT_NAME":"INMARSAT 3-F1","OBJECT_ID":"1996-020A","EPOCH":"2026-04-26T16:47:21.984864","MEAN_MOTION":0.99995002,"ECCENTRICITY":0.00040028,"INCLINATION":10.4965,"RA_OF_ASC_NODE":47.1006,"ARG_OF_PERICENTER":334.2703,"MEAN_ANOMALY":43.0834,"EPHEMERIS_TYPE":0,"CLASSIFICATION_TYPE":"U","NORAD_CAT_ID":23839,"ELEMENT_SET_NO":999,"REV_AT_EPOCH":10974,"BSTAR":0,"MEAN_MOTION_DOT":-2.92e-6,"MEAN_MOTION_DDOT":0},{"OBJECT_NAME":"GORIZONT 32","OBJECT_ID":"1996-034A","EPOCH":"2026-04-26T10:53:47.199264","MEAN_MOTION":1.00222822,"ECCENTRICITY":0.00090498,"INCLINATION":14.3901,"RA_OF_ASC_NODE":355.3796,"ARG_OF_PERICENTER":357.7156,"MEAN_ANOMALY":182.8411,"EPHEMERIS_TYPE":0,"CLASSIFICATION_TYPE":"U","NORAD_CAT_ID":23880,"ELEMENT_SET_NO":999,"REV_AT_EPOCH":10951,"BSTAR":0,"MEAN_MOTION_DOT":-1.74e-6,"MEAN_MOTION_DDOT":0},{"OBJECT_NAME":"TURKSAT 1C","OBJECT_ID":"1996-040B","EPOCH":"2026-04-26T23:39:03.458880","MEAN_MOTION":1.00372789,"ECCENTRICITY":0.0003122,"INCLINATION":11.9828,"RA_OF_ASC_NODE":30.5751,"ARG_OF_PERICENTER":188.2101,"MEAN_ANOMALY":83.7897,"EPHEMERIS_TYPE":0,"CLASSIFICATION_TYPE":"U","NORAD_CAT_ID":23949,"ELEMENT_SET_NO":999,"REV_AT_EPOCH":10916,"BSTAR":0,"MEAN_MOTION_DOT":-2.89e-6,"MEAN_MOTION_DDOT":0},{"OBJECT_NAME":"UFO 7 (USA 127)","OBJECT_ID":"1996-042A","EPOCH":"2026-04-27T01:22:34.300416","MEAN_MOTION":1.00230915,"ECCENTRICITY":0.0004547,"INCLINATION":11.0685,"RA_OF_ASC_NODE":17.3587,"ARG_OF_PERICENTER":97.6899,"MEAN_ANOMALY":85.076,"EPHEMERIS_TYPE":0,"CLASSIFICATION_TYPE":"U","NORAD_CAT_ID":23967,"ELEMENT_SET_NO":999,"REV_AT_EPOCH":10897,"BSTAR":0,"MEAN_MOTION_DOT":-2.72e-6,"MEAN_MOTION_DDOT":0},{"OBJECT_NAME":"INMARSAT 3-F2","OBJECT_ID":"1996-053A","EPOCH":"2026-04-27T04:24:10.815264","MEAN_MOTION":0.99994542,"ECCENTRICITY":0.0006669,"INCLINATION":9.7438,"RA_OF_ASC_NODE":54.4479,"ARG_OF_PERICENTER":345.8041,"MEAN_ANOMALY":79.98,"EPHEMERIS_TYPE":0,"CLASSIFICATION_TYPE":"U","NORAD_CAT_ID":24307,"ELEMENT_SET_NO":999,"REV_AT_EPOCH":10841,"BSTAR":0,"MEAN_MOTION_DOT":9.4e-7,"MEAN_MOTION_DDOT":0},{"OBJECT_NAME":"ECHOSTAR 2","OBJECT_ID":"1996-055A","EPOCH":"2026-04-27T03:18:53.294976","MEAN_MOTION":1.00344255,"ECCENTRICITY":0.0010367,"INCLINATION":11.8871,"RA_OF_ASC_NODE":31.9684,"ARG_OF_PERICENTER":85.2473,"MEAN_ANOMALY":58.7306,"EPHEMERIS_TYPE":0,"CLASSIFICATION_TYPE":"U","NORAD_CAT_ID":24313,"ELEMENT_SET_NO":999,"REV_AT_EPOCH":10850,"BSTAR":0,"MEAN_MOTION_DOT":-2.16e-6,"MEAN_MOTION_DDOT":0},{"OBJECT_NAME":"EXPRESS 2","OBJECT_ID":"1996-058A","EPOCH":"2026-04-27T03:54:21.460896","MEAN_MOTION":1.00326089,"ECCENTRICITY":0.0010655,"INCLINATION":14.5739,"RA_OF_ASC_NODE":354.7458,"ARG_OF_PERICENTER":356.7314,"MEAN_ANOMALY":11.3492,"EPHEMERIS_TYPE":0,"CLASSIFICATION_TYPE":"U","NORAD_CAT_ID":24435,"ELEMENT_SET_NO":999,"REV_AT_EPOCH":10830,"BSTAR":0,"MEAN_MOTION_DOT":-2.62e-6,"MEAN_MOTION_DDOT":0},{"OBJECT_NAME":"SL-12 R/B(2)","OBJECT_ID":"1996-058D","EPOCH":"2026-04-26T18:51:41.508576","MEAN_MOTION":1.00261843,"ECCENTRICITY":0.00073846,"INCLINATION":14.3879,"RA_OF_ASC_NODE":351.4529,"ARG_OF_PERICENTER":123.3189,"MEAN_ANOMALY":56.799,"EPHEMERIS_TYPE":0,"CLASSIFICATION_TYPE":"U","NORAD_CAT_ID":24438,"ELEMENT_SET_NO":999,"REV_AT_EPOCH":10832,"BSTAR":0,"MEAN_MOTION_DOT":1.12e-6,"MEAN_MOTION_DDOT":0},{"OBJECT_NAME":"AFRICASAT-2 (MEASAT-2)","OBJECT_ID":"1996-063B","EPOCH":"2026-04-27T01:21:26.908416","MEAN_MOTION":0.99658808,"ECCENTRICITY":0.0004065,"INCLINATION":12.1829,"RA_OF_ASC_NODE":29.3748,"ARG_OF_PERICENTER":207.9904,"MEAN_ANOMALY":318.2574,"EPHEMERIS_TYPE":0,"CLASSIFICATION_TYPE":"U","NORAD_CAT_ID":24653,"ELEMENT_SET_NO":999,"REV_AT_EPOCH":10777,"BSTAR":0,"MEAN_MOTION_DOT":-2.92e-6,"MEAN_MOTION_DDOT":0},{"OBJECT_NAME":"INMARSAT 3-F3","OBJECT_ID":"1996-070A","EPOCH":"2026-04-26T19:09:47.781216","MEAN_MOTION":0.9997814,"ECCENTRICITY":0.00047111,"INCLINATION":10.2094,"RA_OF_ASC_NODE":50.1354,"ARG_OF_PERICENTER":323.5018,"MEAN_ANOMALY":225.8544,"EPHEMERIS_TYPE":0,"CLASSIFICATION_TYPE":"U","NORAD_CAT_ID":24674,"ELEMENT_SET_NO":999,"REV_AT_EPOCH":10739,"BSTAR":0,"MEAN_MOTION_DOT":-2.42e-6,"MEAN_MOTION_DDOT":0},{"OBJECT_NAME":"DFH 3-2","OBJECT_ID":"1997-021A","EPOCH":"2026-04-26T14:09:52.517088","MEAN_MOTION":1.00251322,"ECCENTRICITY":0.0006003,"INCLINATION":13.4634,"RA_OF_ASC_NODE":14.19,"ARG_OF_PERICENTER":89.8187,"MEAN_ANOMALY":88.3813,"EPHEMERIS_TYPE":0,"CLASSIFICATION_TYPE":"U","NORAD_CAT_ID":24798,"ELEMENT_SET_NO":999,"REV_AT_EPOCH":10600,"BSTAR":0,"MEAN_MOTION_DOT":-3.77e-6,"MEAN_MOTION_DDOT":0},{"OBJECT_NAME":"AMC-3","OBJECT_ID":"1997-050A","EPOCH":"2026-04-26T20:04:12.564192","MEAN_MOTION":1.00271411,"ECCENTRICITY":0.000309,"INCLINATION":8.0228,"RA_OF_ASC_NODE":64.6637,"ARG_OF_PERICENTER":321.0795,"MEAN_ANOMALY":58.1392,"EPHEMERIS_TYPE":0,"CLASSIFICATION_TYPE":"U","NORAD_CAT_ID":24936,"ELEMENT_SET_NO":999,"REV_AT_EPOCH":5192,"BSTAR":0,"MEAN_MOTION_DOT":-2.68e-6,"MEAN_MOTION_DDOT":0},{"OBJECT_NAME":"USA 134","OBJECT_ID":"1997-065A","EPOCH":"2026-04-26T14:09:58.560768","MEAN_MOTION":1.00276282,"ECCENTRICITY":0.0006081,"INCLINATION":12.725,"RA_OF_ASC_NODE":22.1107,"ARG_OF_PERICENTER":324.7858,"MEAN_ANOMALY":327.866,"EPHEMERIS_TYPE":0,"CLASSIFICATION_TYPE":"U","NORAD_CAT_ID":25019,"ELEMENT_SET_NO":999,"REV_AT_EPOCH":3243,"BSTAR":0,"MEAN_MOTION_DOT":-7.2e-7,"MEAN_MOTION_DDOT":0},{"OBJECT_NAME":"KUPON","OBJECT_ID":"1997-070A","EPOCH":"2026-04-27T03:09:36.542016","MEAN_MOTION":1.00271054,"ECCENTRICITY":0.0005074,"INCLINATION":14.5559,"RA_OF_ASC_NODE":355.0238,"ARG_OF_PERICENTER":313.9375,"MEAN_ANOMALY":45.9764,"EPHEMERIS_TYPE":0,"CLASSIFICATION_TYPE":"U","NORAD_CAT_ID":25045,"ELEMENT_SET_NO":999,"REV_AT_EPOCH":10413,"BSTAR":0,"MEAN_MOTION_DOT":-2.78e-6,"MEAN_MOTION_DDOT":0},{"OBJECT_NAME":"INDOSTAR 1","OBJECT_ID":"1997-071B","EPOCH":"2026-04-26T22:47:50.056224","MEAN_MOTION":1.00293638,"ECCENTRICITY":0.0003856,"INCLINATION":12.8985,"RA_OF_ASC_NODE":20.4221,"ARG_OF_PERICENTER":317.4412,"MEAN_ANOMALY":251.2244,"EPHEMERIS_TYPE":0,"CLASSIFICATION_TYPE":"U","NORAD_CAT_ID":25050,"ELEMENT_SET_NO":999,"REV_AT_EPOCH":10428,"BSTAR":0,"MEAN_MOTION_DOT":1.21e-6,"MEAN_MOTION_DDOT":0},{"OBJECT_NAME":"GALAXY 8 (G-8)","OBJECT_ID":"1997-078A","EPOCH":"2026-04-26T23:10:38.777376","MEAN_MOTION":0.99706607,"ECCENTRICITY":0.0008172,"INCLINATION":14.0169,"RA_OF_ASC_NODE":10.2787,"ARG_OF_PERICENTER":36.7403,"MEAN_ANOMALY":134.3471,"EPHEMERIS_TYPE":0,"CLASSIFICATION_TYPE":"U","NORAD_CAT_ID":25086,"ELEMENT_SET_NO":999,"REV_AT_EPOCH":10343,"BSTAR":0,"MEAN_MOTION_DOT":-2.56e-6,"MEAN_MOTION_DDOT":0},{"OBJECT_NAME":"INTELSAT 804 (IS-804)","OBJECT_ID":"1997-083A","EPOCH":"2026-04-26T12:38:38.766048","MEAN_MOTION":1.00264545,"ECCENTRICITY":0.0009932,"INCLINATION":13.1006,"RA_OF_ASC_NODE":18.0153,"ARG_OF_PERICENTER":20.3604,"MEAN_ANOMALY":171.7729,"EPHEMERIS_TYPE":0,"CLASSIFICATION_TYPE":"U","NORAD_CAT_ID":25110,"ELEMENT_SET_NO":999,"REV_AT_EPOCH":10381,"BSTAR":0,"MEAN_MOTION_DOT":-8.9e-7,"MEAN_MOTION_DDOT":0}]
